{
"type": "FeatureCollection",
"name": "counties_five_vt",
"crs": { "type": "name", "properties": { "name": "urn:ogc:def:crs:OGC:1.3:CRS84" } },
"features": [
{ "type": "Feature", "properties": { "county_name": "Caledonia", "GEOID": "50005" }, "geometry": { "type": "Polygon", "coordinates": [ [ [ -72.434116, 44.506019 ], [ -72.429793, 44.512025 ], [ -72.428477, 44.512558 ], [ -72.419108, 44.524945 ], [ -72.37386, 44.584162 ], [ -72.366517, 44.580781 ], [ -72.302425, 44.557481 ], [ -72.282231, 44.549738 ], [ -72.262875, 44.542489 ], [ -72.261671, 44.543761 ], [ -72.241562, 44.570884 ], [ -72.237339, 44.576577 ], [ -72.23724, 44.576715 ], [ -72.207123, 44.616733 ], [ -72.202487, 44.624097 ], [ -72.199261, 44.628282 ], [ -72.149959, 44.697856 ], [ -72.146569, 44.703481 ], [ -72.145957, 44.704498 ], [ -72.089296, 44.685081 ], [ -72.095108, 44.700081 ], [ -72.11436, 44.749812 ], [ -72.011454, 44.698833 ], [ -71.999565, 44.711043 ], [ -71.939292, 44.769441 ], [ -71.857465, 44.726896 ], [ -71.837067, 44.716376 ], [ -71.910198, 44.646831 ], [ -71.842372, 44.610867 ], [ -71.898277, 44.557881 ], [ -71.900639, 44.555503 ], [ -71.908938, 44.547917 ], [ -71.856691, 44.496275 ], [ -71.903264, 44.454742 ], [ -71.933222, 44.441138 ], [ -71.837764853491294, 44.347719933902098 ], [ -71.844319, 44.344204 ], [ -71.845015554428997, 44.3439247578766 ], [ -71.852628, 44.340873 ], [ -71.861941, 44.340109 ], [ -71.86991, 44.336962 ], [ -71.872472, 44.336628 ], [ -71.87583, 44.337801 ], [ -71.890357, 44.343119 ], [ -71.902332, 44.347499 ], [ -71.909416, 44.348398 ], [ -71.917434, 44.346535 ], [ -71.925088, 44.342024 ], [ -71.92911, 44.337577 ], [ -71.935395, 44.33577 ], [ -71.939049, 44.335844 ], [ -71.945163, 44.337744 ], [ -71.958047, 44.337427 ], [ -71.963133, 44.336556 ], [ -71.98112, 44.3375 ], [ -71.984617, 44.336243 ], [ -71.984624608959194, 44.336222520610697 ], [ -71.984645680707402, 44.336165806344397 ], [ -71.986484, 44.331218 ], [ -71.988306, 44.329768 ], [ -71.992716, 44.328631 ], [ -72.003881, 44.32409 ], [ -72.013514, 44.321078 ], [ -72.018901, 44.320216 ], [ -72.025783, 44.322054 ], [ -72.029061, 44.322398 ], [ -72.032816, 44.320446 ], [ -72.033806, 44.317349 ], [ -72.031902, 44.315653 ], [ -72.032317, 44.306677 ], [ -72.032725, 44.302471 ], [ -72.034818214196505, 44.3004558838999 ], [ -72.039506, 44.295943 ], [ -72.042812, 44.29552 ], [ -72.044506, 44.294963 ], [ -72.046302, 44.291983 ], [ -72.053160162457004, 44.290541939917603 ], [ -72.053355, 44.290501 ], [ -72.057425466972106, 44.287361767462798 ], [ -72.05888, 44.28624 ], [ -72.065434, 44.277235 ], [ -72.068432, 44.271296 ], [ -72.067135, 44.268237 ], [ -72.064544, 44.267997 ], [ -72.060039, 44.269855 ], [ -72.058559, 44.269077 ], [ -72.058475, 44.267886 ], [ -72.058969, 44.265911 ], [ -72.059444, 44.264896 ], [ -72.060543, 44.264491 ], [ -72.061174, 44.263377 ], [ -72.05978, 44.256885 ], [ -72.059180220961693, 44.255853359336399 ], [ -72.05399, 44.246926 ], [ -72.050112, 44.244046 ], [ -72.04846, 44.241212 ], [ -72.047889, 44.238493 ], [ -72.050548, 44.232974 ], [ -72.053582, 44.22604 ], [ -72.0539, 44.222703 ], [ -72.052502, 44.218876 ], [ -72.052947184687795, 44.217937976614998 ], [ -72.05537, 44.212833 ], [ -72.058285, 44.211803 ], [ -72.059536, 44.210315 ], [ -72.058066, 44.206067 ], [ -72.058987, 44.202114 ], [ -72.060067, 44.200446 ], [ -72.063561, 44.198457 ], [ -72.064577, 44.196949 ], [ -72.066166, 44.189773 ], [ -72.061338, 44.184951 ], [ -72.057496, 44.179444 ], [ -72.053021, 44.167903 ], [ -72.051523, 44.166219 ], [ -72.048969, 44.165039 ], [ -72.047593, 44.161801 ], [ -72.046568, 44.161403 ], [ -72.045111, 44.161749 ], [ -72.042359, 44.161701 ], [ -72.042387, 44.160817 ], [ -72.044004, 44.158155 ], [ -72.043569551921394, 44.157078021496503 ], [ -72.070377, 44.16445 ], [ -72.083448, 44.168031 ], [ -72.166327, 44.190774 ], [ -72.170691, 44.191972 ], [ -72.174365, 44.192661 ], [ -72.220036, 44.189233 ], [ -72.305201, 44.183087 ], [ -72.36888, 44.203888 ], [ -72.336869, 44.246215 ], [ -72.335094, 44.247515 ], [ -72.316652, 44.272228 ], [ -72.316834, 44.298781 ], [ -72.285883, 44.326306 ], [ -72.282026, 44.329272 ], [ -72.270128, 44.340385 ], [ -72.227784, 44.396897 ], [ -72.225435, 44.400048 ], [ -72.217078, 44.411311 ], [ -72.218874, 44.412886 ], [ -72.222042, 44.414241 ], [ -72.222649, 44.416056 ], [ -72.220162, 44.416481 ], [ -72.221118, 44.418413 ], [ -72.219462, 44.418139 ], [ -72.220926, 44.422073 ], [ -72.221932, 44.422836 ], [ -72.225219, 44.421682 ], [ -72.225199, 44.420727 ], [ -72.22822, 44.419315 ], [ -72.228973, 44.421007 ], [ -72.228189, 44.422204 ], [ -72.226197, 44.42233 ], [ -72.223142, 44.423801 ], [ -72.223806, 44.424888 ], [ -72.317544, 44.461152 ], [ -72.32138, 44.463159 ], [ -72.325905, 44.4645 ], [ -72.426252, 44.502979 ], [ -72.434683, 44.505239 ], [ -72.434116, 44.506019 ] ] ] } },
{ "type": "Feature", "properties": { "county_name": "Essex", "GEOID": "50009" }, "geometry": { "type": "Polygon", "coordinates": [ [ [ -71.974825, 44.787232 ], [ -71.929316, 44.829639 ], [ -71.91995, 44.836895 ], [ -71.877857, 44.878762 ], [ -71.902822, 44.892235 ], [ -71.920145, 44.901525 ], [ -71.914156, 44.93301 ], [ -71.911939, 44.944603 ], [ -71.899319218792598, 45.008178680301697 ], [ -71.767452, 45.011437 ], [ -71.697765972269295, 45.011420397986903 ], [ -71.691898, 45.011419 ], [ -71.60984, 45.012709 ], [ -71.560562, 45.012555 ], [ -71.556667458020897, 45.012606993582601 ], [ -71.518801530757301, 45.013112517782197 ], [ -71.501088, 45.013349 ], [ -71.465049961356797, 45.013633098079197 ], [ -71.464555, 45.013637 ], [ -71.465964, 45.011919 ], [ -71.473269, 45.010586 ], [ -71.476676, 45.009179 ], [ -71.478458, 45.007486 ], [ -71.480552, 45.002334 ], [ -71.488547836346001, 45.001287520925402 ], [ -71.489675, 45.00114 ], [ -71.494648, 45.003998 ], [ -71.496864, 45.003947 ], [ -71.501055, 45.006742 ], [ -71.504251, 45.008223 ], [ -71.508129, 45.007937 ], [ -71.513859390190504, 45.004603712775499 ], [ -71.514452, 45.004259 ], [ -71.519996, 45.002417 ], [ -71.524794, 45.001921 ], [ -71.525381697089998, 45.0016448045155 ], [ -71.529305, 44.999801 ], [ -71.529667039440895, 44.999527011412503 ], [ -71.536188, 44.994592 ], [ -71.537091, 44.992611 ], [ -71.533713, 44.991963 ], [ -71.532749, 44.991066 ], [ -71.534008, 44.990414 ], [ -71.538143, 44.98985 ], [ -71.538647, 44.987256 ], [ -71.539989683037703, 44.986160085753703 ], [ -71.541324, 44.985071 ], [ -71.54086, 44.983788 ], [ -71.536602, 44.983372 ], [ -71.532818283385794, 44.978153349610302 ], [ -71.532238, 44.977353 ], [ -71.526607, 44.971265 ], [ -71.522035, 44.968545 ], [ -71.523117, 44.966852 ], [ -71.518947, 44.967869 ], [ -71.51886, 44.966622 ], [ -71.523563, 44.964607 ], [ -71.523376, 44.96396 ], [ -71.520216, 44.963487 ], [ -71.518864, 44.963626 ], [ -71.517674, 44.964383 ], [ -71.516246, 44.964089 ], [ -71.514843, 44.958741 ], [ -71.515857, 44.952758 ], [ -71.518987, 44.950115 ], [ -71.517508, 44.948812 ], [ -71.517288, 44.944692 ], [ -71.514933, 44.944159 ], [ -71.515351695665402, 44.942719691780702 ], [ -71.516183, 44.939862 ], [ -71.517983, 44.938745 ], [ -71.520107, 44.939009 ], [ -71.521127, 44.940357 ], [ -71.522441, 44.940289 ], [ -71.523048, 44.939258 ], [ -71.520128, 44.93664 ], [ -71.517077, 44.935876 ], [ -71.51345, 44.928808 ], [ -71.515605, 44.927992 ], [ -71.515437, 44.926923 ], [ -71.509207, 44.923429 ], [ -71.504483, 44.919062 ], [ -71.500788, 44.914535 ], [ -71.500552, 44.913089 ], [ -71.500548, 44.911956 ], [ -71.499945, 44.911174 ], [ -71.498926, 44.910917 ], [ -71.495326, 44.911794 ], [ -71.494403, 44.911837 ], [ -71.493363, 44.911612 ], [ -71.493268947812595, 44.911204328952898 ], [ -71.493082, 44.910394 ], [ -71.494716, 44.910102 ], [ -71.496017, 44.908898 ], [ -71.495951, 44.90736 ], [ -71.494835, 44.905919 ], [ -71.49491, 44.904299 ], [ -71.495378, 44.903621 ], [ -71.495793, 44.903728 ], [ -71.496609, 44.903603 ], [ -71.497841, 44.904342 ], [ -71.499528, 44.904774 ], [ -71.501088, 44.904433 ], [ -71.502473, 44.90272 ], [ -71.504963272717504, 44.9006947611892 ], [ -71.508642, 44.897703 ], [ -71.5132, 44.894785 ], [ -71.51409, 44.893149 ], [ -71.510669, 44.89043 ], [ -71.515641, 44.885371 ], [ -71.518745, 44.884806 ], [ -71.521915, 44.880405 ], [ -71.521979803135693, 44.880350093577498 ], [ -71.523349, 44.87919 ], [ -71.527343, 44.878277 ], [ -71.528889, 44.876928 ], [ -71.528751, 44.873494 ], [ -71.53433, 44.869465 ], [ -71.539286, 44.86863 ], [ -71.545525, 44.866127 ], [ -71.549741, 44.861458 ], [ -71.549747, 44.859696 ], [ -71.547516, 44.856747 ], [ -71.548358, 44.854686 ], [ -71.553217, 44.851858 ], [ -71.555656, 44.849118 ], [ -71.555482, 44.847006 ], [ -71.551424, 44.84216 ], [ -71.550647, 44.838499 ], [ -71.551114, 44.836965 ], [ -71.553328, 44.835164 ], [ -71.556923, 44.834201 ], [ -71.560811, 44.825221 ], [ -71.561496503264607, 44.824359008540803 ], [ -71.562353, 44.823282 ], [ -71.564533, 44.823548 ], [ -71.568404, 44.822703 ], [ -71.573456, 44.820644 ], [ -71.57489, 44.818109 ], [ -71.576865, 44.815197 ], [ -71.57605, 44.812429 ], [ -71.574135, 44.81162 ], [ -71.568672, 44.807457 ], [ -71.56877, 44.805722 ], [ -71.571888, 44.801415 ], [ -71.573129, 44.797947 ], [ -71.571315, 44.793339 ], [ -71.57972, 44.784725 ], [ -71.584177, 44.784794 ], [ -71.592486, 44.782669 ], [ -71.595164, 44.780152 ], [ -71.595099, 44.775405 ], [ -71.601471, 44.772067 ], [ -71.602229414466905, 44.771022732752101 ], [ -71.604615, 44.767738 ], [ -71.610179, 44.765584 ], [ -71.611767, 44.764345 ], [ -71.612856, 44.758998 ], [ -71.616669, 44.756299 ], [ -71.621157, 44.755772 ], [ -71.625482, 44.753788 ], [ -71.630257, 44.753475 ], [ -71.631883, 44.752463 ], [ -71.632043, 44.750269 ], [ -71.63106, 44.748509 ], [ -71.626986, 44.747014 ], [ -71.625148, 44.74275 ], [ -71.626166, 44.739864 ], [ -71.625013, 44.736299 ], [ -71.626248, 44.72904 ], [ -71.625038, 44.727708 ], [ -71.622234, 44.727538 ], [ -71.619079, 44.729035 ], [ -71.617038, 44.72825 ], [ -71.618732, 44.722471 ], [ -71.612548, 44.719186 ], [ -71.612512, 44.716673 ], [ -71.607551, 44.712317 ], [ -71.603948, 44.707583 ], [ -71.6001, 44.705999 ], [ -71.598792, 44.703274 ], [ -71.600975, 44.699934 ], [ -71.600496, 44.698737 ], [ -71.598656, 44.698005 ], [ -71.594136, 44.696932 ], [ -71.593802, 44.695632 ], [ -71.596497, 44.694609 ], [ -71.597955, 44.691767 ], [ -71.596437, 44.687059 ], [ -71.594224, 44.683815 ], [ -71.594208, 44.68144 ], [ -71.596623, 44.679056 ], [ -71.596089, 44.677637 ], [ -71.586162, 44.67435 ], [ -71.582502, 44.674246 ], [ -71.581463, 44.673204 ], [ -71.582027, 44.672018 ], [ -71.586965, 44.67047 ], [ -71.587339, 44.66877 ], [ -71.585157, 44.666057 ], [ -71.58511, 44.663112 ], [ -71.587198, 44.661475 ], [ -71.587237552770802, 44.6610581564277 ], [ -71.587365, 44.659715 ], [ -71.585748, 44.6579 ], [ -71.581315, 44.65545 ], [ -71.5766, 44.656189 ], [ -71.57449, 44.654832 ], [ -71.576098, 44.652762 ], [ -71.579419, 44.652309 ], [ -71.57881, 44.650982 ], [ -71.571626, 44.649897 ], [ -71.569025, 44.65029 ], [ -71.567708, 44.651536 ], [ -71.567053, 44.653349 ], [ -71.565076, 44.653796 ], [ -71.562806, 44.652356 ], [ -71.561667, 44.646822 ], [ -71.55879, 44.644219 ], [ -71.558068096115505, 44.641874374938098 ], [ -71.557866, 44.641218 ], [ -71.559704, 44.639298 ], [ -71.563599, 44.639049 ], [ -71.563279, 44.636648 ], [ -71.559554, 44.634964 ], [ -71.555791, 44.632047 ], [ -71.55214, 44.630082 ], [ -71.54951, 44.630903 ], [ -71.547226, 44.630355 ], [ -71.546931, 44.62855 ], [ -71.551128, 44.627755 ], [ -71.554837, 44.629631 ], [ -71.55735, 44.628448 ], [ -71.556467, 44.627221 ], [ -71.552945, 44.626747 ], [ -71.54971, 44.625129 ], [ -71.547756, 44.625007 ], [ -71.545978, 44.623118 ], [ -71.546948, 44.622123 ], [ -71.550442, 44.62313 ], [ -71.55415, 44.625419 ], [ -71.555062, 44.624185 ], [ -71.555801, 44.622699 ], [ -71.556531, 44.619575 ], [ -71.5556, 44.614326 ], [ -71.553616, 44.608299 ], [ -71.55386, 44.605598 ], [ -71.555233, 44.604034 ], [ -71.558563, 44.603276 ], [ -71.561903, 44.603128 ], [ -71.5622, 44.601592 ], [ -71.560421, 44.599769 ], [ -71.557279, 44.599381 ], [ -71.551562, 44.601227 ], [ -71.550331, 44.600896 ], [ -71.550634, 44.599591 ], [ -71.554151, 44.597961 ], [ -71.554211, 44.595352 ], [ -71.555402, 44.593842 ], [ -71.553372, 44.593171 ], [ -71.549146, 44.594994 ], [ -71.547253, 44.59684 ], [ -71.546087, 44.597377 ], [ -71.545055, 44.596773 ], [ -71.545463, 44.594624 ], [ -71.547424, 44.591831 ], [ -71.545939, 44.590604 ], [ -71.543918, 44.590985 ], [ -71.540175, 44.59327 ], [ -71.538274, 44.593524 ], [ -71.537976, 44.592018 ], [ -71.539878, 44.589969 ], [ -71.540051, 44.588524 ], [ -71.538449, 44.587479 ], [ -71.535946, 44.587776 ], [ -71.535584114332593, 44.5873389686748 ], [ -71.535397, 44.587113 ], [ -71.537182, 44.585259 ], [ -71.537381, 44.583359 ], [ -71.540463, 44.580841 ], [ -71.544491, 44.578476 ], [ -71.546533, 44.577819 ], [ -71.549405, 44.578171 ], [ -71.550594, 44.580389 ], [ -71.55194, 44.581378 ], [ -71.554444, 44.581336 ], [ -71.554883, 44.579628 ], [ -71.553891, 44.577629 ], [ -71.552243, 44.575447 ], [ -71.548168, 44.572676 ], [ -71.547726, 44.571381 ], [ -71.549374, 44.569641 ], [ -71.552826, 44.569209 ], [ -71.556103, 44.570282 ], [ -71.556802146984694, 44.570276358468099 ], [ -71.557838, 44.570268 ], [ -71.558985, 44.568779 ], [ -71.558469, 44.566116 ], [ -71.559049, 44.564446 ], [ -71.56207, 44.563172 ], [ -71.569599, 44.562777 ], [ -71.574125, 44.564507 ], [ -71.587664, 44.565798 ], [ -71.591521, 44.565155 ], [ -71.593625, 44.563702 ], [ -71.596137, 44.560898 ], [ -71.597797, 44.557172 ], [ -71.598116, 44.555412 ], [ -71.597135, 44.553849 ], [ -71.587324, 44.547425 ], [ -71.580519, 44.54451 ], [ -71.574445, 44.540635 ], [ -71.5722259660226, 44.5384432380501 ], [ -71.572004, 44.538224 ], [ -71.571943, 44.536973 ], [ -71.574531, 44.531745 ], [ -71.578642, 44.526772 ], [ -71.582948, 44.523352 ], [ -71.587085, 44.522362 ], [ -71.592375, 44.523278 ], [ -71.594259, 44.52168 ], [ -71.593458, 44.519639 ], [ -71.591932, 44.517907 ], [ -71.58708, 44.515275 ], [ -71.585798, 44.51378 ], [ -71.584715, 44.510865 ], [ -71.582853, 44.50818 ], [ -71.57829, 44.505418 ], [ -71.576812, 44.504081 ], [ -71.576765, 44.502618 ], [ -71.578138, 44.501641 ], [ -71.581251, 44.501679 ], [ -71.583987, 44.502881 ], [ -71.584801, 44.504398 ], [ -71.586302, 44.506554 ], [ -71.587782, 44.506745 ], [ -71.588438, 44.505799 ], [ -71.587203, 44.504133 ], [ -71.585881, 44.500057 ], [ -71.586972, 44.498526 ], [ -71.589048, 44.4982 ], [ -71.589623, 44.499371 ], [ -71.591429, 44.501336 ], [ -71.593885, 44.501031 ], [ -71.594517, 44.499331 ], [ -71.595213, 44.493409 ], [ -71.59702, 44.490741 ], [ -71.599333, 44.486283 ], [ -71.606184295147202, 44.484882897204798 ], [ -71.609526, 44.4842 ], [ -71.615923, 44.485944 ], [ -71.617843, 44.485841 ], [ -71.620391, 44.482888 ], [ -71.624557, 44.475183 ], [ -71.626952, 44.474267 ], [ -71.631789, 44.474023 ], [ -71.634505, 44.475625 ], [ -71.634871, 44.477441 ], [ -71.633437, 44.478211 ], [ -71.626341, 44.480225 ], [ -71.624663, 44.481744 ], [ -71.625548, 44.48346 ], [ -71.627655, 44.484207 ], [ -71.631007, 44.484323 ], [ -71.632795, 44.48389 ], [ -71.638321, 44.477893 ], [ -71.642308, 44.476501 ], [ -71.644899, 44.475198 ], [ -71.646702, 44.473182 ], [ -71.647373, 44.472127 ], [ -71.647353411554604, 44.471639593389099 ], [ -71.647305, 44.470435 ], [ -71.64556, 44.468926 ], [ -71.639627, 44.466351 ], [ -71.638986, 44.464411 ], [ -71.643522, 44.460591 ], [ -71.646094, 44.459999 ], [ -71.651012, 44.460854 ], [ -71.652553, 44.460518 ], [ -71.656371, 44.455159 ], [ -71.65695, 44.448606 ], [ -71.659707, 44.441465 ], [ -71.660240283739199, 44.440941678860703 ], [ -71.663454, 44.437788 ], [ -71.669186, 44.435897 ], [ -71.677382, 44.435499 ], [ -71.679282, 44.434337 ], [ -71.677427, 44.431484 ], [ -71.675993, 44.428712 ], [ -71.676967, 44.426848 ], [ -71.67806, 44.426552 ], [ -71.680331, 44.427714 ], [ -71.682701, 44.42734 ], [ -71.683943, 44.423978 ], [ -71.688813, 44.421741 ], [ -71.695331, 44.418277 ], [ -71.701056586723496, 44.414561006516003 ], [ -71.702186, 44.413828 ], [ -71.714615, 44.40956 ], [ -71.722616, 44.410872 ], [ -71.731072, 44.410665 ], [ -71.736624, 44.409445 ], [ -71.738643, 44.407597 ], [ -71.738719323144693, 44.407468472156701 ], [ -71.742317, 44.40141 ], [ -71.745959, 44.400942 ], [ -71.749533, 44.401955 ], [ -71.75434, 44.405577 ], [ -71.756091, 44.406401 ], [ -71.761966, 44.407027 ], [ -71.764977, 44.406587 ], [ -71.765688977432305, 44.406307687658 ], [ -71.767888, 44.405445 ], [ -71.772801, 44.403097 ], [ -71.775399, 44.401126 ], [ -71.778613, 44.399799 ], [ -71.790688, 44.40026 ], [ -71.793924, 44.399271 ], [ -71.802353, 44.39338 ], [ -71.803488, 44.39189 ], [ -71.803489, 44.390384 ], [ -71.799899, 44.385951 ], [ -71.800316, 44.384276 ], [ -71.803461, 44.383335 ], [ -71.808828, 44.383862 ], [ -71.81313, 44.382801 ], [ -71.814388, 44.381932 ], [ -71.815773, 44.375464 ], [ -71.815251, 44.374594 ], [ -71.812424, 44.372532 ], [ -71.812235, 44.371492 ], [ -71.812832, 44.370448 ], [ -71.81549, 44.368836 ], [ -71.816289, 44.367403 ], [ -71.814991, 44.363686 ], [ -71.813023, 44.359301 ], [ -71.812413, 44.357325 ], [ -71.812902, 44.355547 ], [ -71.814351, 44.354541 ], [ -71.818838, 44.352939 ], [ -71.826246, 44.352006 ], [ -71.833261, 44.350136 ], [ -71.837764853491294, 44.347719933902098 ], [ -71.933222, 44.441138 ], [ -71.903264, 44.454742 ], [ -71.856691, 44.496275 ], [ -71.908938, 44.547917 ], [ -71.900639, 44.555503 ], [ -71.898277, 44.557881 ], [ -71.842372, 44.610867 ], [ -71.910198, 44.646831 ], [ -71.837067, 44.716376 ], [ -71.857465, 44.726896 ], [ -71.939292, 44.769441 ], [ -71.974825, 44.787232 ] ] ] } },
{ "type": "Feature", "properties": { "county_name": "Lamoille", "GEOID": "50015" }, "geometry": { "type": "Polygon", "coordinates": [ [ [ -72.926669, 44.647538 ], [ -72.922639, 44.650115 ], [ -72.920972, 44.649304 ], [ -72.917843, 44.646203 ], [ -72.913515, 44.645849 ], [ -72.909897, 44.646672 ], [ -72.905602, 44.645907 ], [ -72.902971, 44.646355 ], [ -72.902011, 44.647222 ], [ -72.900076, 44.650565 ], [ -72.895725, 44.653863 ], [ -72.893225, 44.655408 ], [ -72.891862, 44.65566 ], [ -72.850793, 44.711124 ], [ -72.79322, 44.690669 ], [ -72.792327, 44.694294 ], [ -72.792385, 44.696113 ], [ -72.791671, 44.697005 ], [ -72.783654, 44.728418 ], [ -72.779389, 44.743832 ], [ -72.774394, 44.74317 ], [ -72.768592, 44.764996 ], [ -72.75855, 44.763641 ], [ -72.755047, 44.777033 ], [ -72.745789, 44.775903 ], [ -72.74685, 44.790089 ], [ -72.729097, 44.804039 ], [ -72.678379, 44.802482 ], [ -72.613597, 44.800417 ], [ -72.616729, 44.795844 ], [ -72.597899, 44.787055 ], [ -72.594404, 44.790299 ], [ -72.579075, 44.780896 ], [ -72.500872, 44.752618 ], [ -72.49959, 44.752275 ], [ -72.422873, 44.724616 ], [ -72.417477, 44.722947 ], [ -72.417315, 44.722893 ], [ -72.423644, 44.714614 ], [ -72.476924, 44.64214 ], [ -72.482793, 44.634103 ], [ -72.371063, 44.593325 ], [ -72.368385, 44.592846 ], [ -72.371759, 44.588227 ], [ -72.37386, 44.584162 ], [ -72.419108, 44.524945 ], [ -72.428477, 44.512558 ], [ -72.429793, 44.512025 ], [ -72.434116, 44.506019 ], [ -72.438843, 44.499979 ], [ -72.467251, 44.461235 ], [ -72.474477, 44.452245 ], [ -72.475933, 44.45001 ], [ -72.481284, 44.44362 ], [ -72.484742, 44.439135 ], [ -72.48509, 44.436769 ], [ -72.493242, 44.425829 ], [ -72.493561, 44.423977 ], [ -72.597285, 44.479385 ], [ -72.59891, 44.477223 ], [ -72.600277, 44.473977 ], [ -72.65434, 44.398297 ], [ -72.68435, 44.410686 ], [ -72.719927, 44.425101 ], [ -72.765559, 44.442806 ], [ -72.804857, 44.451882 ], [ -72.838296, 44.459293 ], [ -72.837223, 44.460718 ], [ -72.803636, 44.506284 ], [ -72.830756, 44.51643 ], [ -72.809956, 44.546714 ], [ -72.827042, 44.550692 ], [ -72.847776, 44.570094 ], [ -72.850245, 44.572088 ], [ -72.858425, 44.579742 ], [ -72.867133, 44.588516 ], [ -72.909961, 44.631197 ], [ -72.923777, 44.633214 ], [ -72.926414, 44.635125 ], [ -72.923968, 44.637405 ], [ -72.925513, 44.639147 ], [ -72.926547, 44.640319 ], [ -72.923758, 44.641942 ], [ -72.927279, 44.645736 ], [ -72.926669, 44.647538 ] ] ] } },
{ "type": "Feature", "properties": { "county_name": "Orleans", "GEOID": "50019" }, "geometry": { "type": "Polygon", "coordinates": [ [ [ -72.53328, 44.834081 ], [ -72.541383, 44.925977 ], [ -72.536498, 44.926114 ], [ -72.552008, 45.000581 ], [ -72.552117, 45.00085 ], [ -72.553880154638605, 45.008265461859096 ], [ -72.532503, 45.00786 ], [ -72.481033, 45.00887 ], [ -72.448865, 45.008537 ], [ -72.433297917471293, 45.007899484984002 ], [ -72.418126118569106, 45.007278157923999 ], [ -72.401298, 45.006589 ], [ -72.400892896802702, 45.006581591871701 ], [ -72.348583, 45.005625 ], [ -72.329233400136104, 45.004719070928203 ], [ -72.310073, 45.003822 ], [ -72.291866, 45.004496 ], [ -72.270869, 45.004186 ], [ -72.246725280823497, 45.004623314087397 ], [ -72.242698384955901, 45.004696253069099 ], [ -72.160506, 45.006185 ], [ -72.141981654099396, 45.005995719415097 ], [ -72.109921681888395, 45.0056681326638 ], [ -72.103058, 45.005598 ], [ -72.088286033372398, 45.005821804481698 ], [ -72.087679270997498, 45.005830997309097 ], [ -72.052169, 45.006369 ], [ -72.051327089893306, 45.006384501955999 ], [ -72.051274924743595, 45.0063854624646 ], [ -72.051240100972606, 45.006386103669101 ], [ -72.029739, 45.006782 ], [ -72.023292, 45.006792 ], [ -71.986705, 45.007872 ], [ -71.947201, 45.008359 ], [ -71.915009, 45.007791 ], [ -71.899319218792598, 45.008178680301697 ], [ -71.911939, 44.944603 ], [ -71.914156, 44.93301 ], [ -71.920145, 44.901525 ], [ -71.902822, 44.892235 ], [ -71.877857, 44.878762 ], [ -71.91995, 44.836895 ], [ -71.929316, 44.829639 ], [ -71.974825, 44.787232 ], [ -71.939292, 44.769441 ], [ -71.999565, 44.711043 ], [ -72.011454, 44.698833 ], [ -72.11436, 44.749812 ], [ -72.095108, 44.700081 ], [ -72.089296, 44.685081 ], [ -72.145957, 44.704498 ], [ -72.146569, 44.703481 ], [ -72.149959, 44.697856 ], [ -72.199261, 44.628282 ], [ -72.202487, 44.624097 ], [ -72.207123, 44.616733 ], [ -72.23724, 44.576715 ], [ -72.237339, 44.576577 ], [ -72.241562, 44.570884 ], [ -72.261671, 44.543761 ], [ -72.262875, 44.542489 ], [ -72.282231, 44.549738 ], [ -72.302425, 44.557481 ], [ -72.366517, 44.580781 ], [ -72.37386, 44.584162 ], [ -72.371759, 44.588227 ], [ -72.368385, 44.592846 ], [ -72.371063, 44.593325 ], [ -72.482793, 44.634103 ], [ -72.476924, 44.64214 ], [ -72.423644, 44.714614 ], [ -72.417315, 44.722893 ], [ -72.417477, 44.722947 ], [ -72.422873, 44.724616 ], [ -72.49959, 44.752275 ], [ -72.500872, 44.752618 ], [ -72.579075, 44.780896 ], [ -72.53328, 44.834081 ] ] ] } },
{ "type": "Feature", "properties": { "county_name": "Washington", "GEOID": "50023" }, "geometry": { "type": "Polygon", "coordinates": [ [ [ -72.952204, 44.161412 ], [ -72.922295, 44.222735 ], [ -72.906598, 44.254514 ], [ -72.89498, 44.278097 ], [ -72.905958, 44.280554 ], [ -72.880378, 44.32985 ], [ -72.861251, 44.3669 ], [ -72.855549, 44.365586 ], [ -72.849353, 44.362962 ], [ -72.843827, 44.362206 ], [ -72.835316, 44.359994 ], [ -72.832659, 44.358743 ], [ -72.828368, 44.360432 ], [ -72.825957, 44.359025 ], [ -72.825282, 44.359886 ], [ -72.802375, 44.38858 ], [ -72.839829, 44.403452 ], [ -72.830604, 44.415425 ], [ -72.804857, 44.451882 ], [ -72.765559, 44.442806 ], [ -72.719927, 44.425101 ], [ -72.68435, 44.410686 ], [ -72.65434, 44.398297 ], [ -72.600277, 44.473977 ], [ -72.59891, 44.477223 ], [ -72.597285, 44.479385 ], [ -72.493561, 44.423977 ], [ -72.493242, 44.425829 ], [ -72.48509, 44.436769 ], [ -72.484742, 44.439135 ], [ -72.481284, 44.44362 ], [ -72.475933, 44.45001 ], [ -72.474477, 44.452245 ], [ -72.467251, 44.461235 ], [ -72.438843, 44.499979 ], [ -72.434116, 44.506019 ], [ -72.434683, 44.505239 ], [ -72.426252, 44.502979 ], [ -72.325905, 44.4645 ], [ -72.32138, 44.463159 ], [ -72.317544, 44.461152 ], [ -72.223806, 44.424888 ], [ -72.223142, 44.423801 ], [ -72.226197, 44.42233 ], [ -72.228189, 44.422204 ], [ -72.228973, 44.421007 ], [ -72.22822, 44.419315 ], [ -72.225199, 44.420727 ], [ -72.225219, 44.421682 ], [ -72.221932, 44.422836 ], [ -72.220926, 44.422073 ], [ -72.219462, 44.418139 ], [ -72.221118, 44.418413 ], [ -72.220162, 44.416481 ], [ -72.222649, 44.416056 ], [ -72.222042, 44.414241 ], [ -72.218874, 44.412886 ], [ -72.217078, 44.411311 ], [ -72.225435, 44.400048 ], [ -72.227784, 44.396897 ], [ -72.270128, 44.340385 ], [ -72.282026, 44.329272 ], [ -72.285883, 44.326306 ], [ -72.316834, 44.298781 ], [ -72.316652, 44.272228 ], [ -72.335094, 44.247515 ], [ -72.336869, 44.246215 ], [ -72.36888, 44.203888 ], [ -72.419197, 44.220781 ], [ -72.424023, 44.202894 ], [ -72.434559, 44.162097 ], [ -72.437413, 44.151153 ], [ -72.443376, 44.1288 ], [ -72.444433, 44.129202 ], [ -72.455538, 44.133344 ], [ -72.459929, 44.134597 ], [ -72.507046, 44.147937 ], [ -72.521237, 44.151865 ], [ -72.521938, 44.152059 ], [ -72.559708, 44.162913 ], [ -72.563985, 44.154782 ], [ -72.583818, 44.159575 ], [ -72.586558, 44.16026 ], [ -72.626176, 44.092997 ], [ -72.626366, 44.092786 ], [ -72.629096, 44.087836 ], [ -72.634476, 44.089312 ], [ -72.682874, 44.01281 ], [ -72.742241, 44.029637 ], [ -72.818962, 44.051884 ], [ -72.848655, 44.060479 ], [ -72.85182, 44.061309 ], [ -72.896904, 44.07366 ], [ -72.910232, 44.072477 ], [ -72.916778, 44.071886 ], [ -72.921762, 44.094721 ], [ -72.932147, 44.155498 ], [ -72.934077, 44.162824 ], [ -72.952204, 44.161412 ] ] ] } }
]
}
